DELTA 2 R/B(1)          
1 20453U 90008B   26034.37905812  .00068042  00000+0  91516-3 0  9995
2 20453  35.6062  39.2061 0097255 299.3795  59.7257 15.51208223920792
COSMOS 2058             
1 20465U 90010A   26034.54678915  .00004199  00000+0  24935-3 0  9995
2 20465  82.4633  81.0636 0012094  92.0852 268.1763 15.11003118937082
SL-14 R/B               
1 20466U 90010B   26034.22136949  .00000550  00000+0  63650-4 0  9992
2 20466  82.5037 299.7650 0021178  55.9843 304.3380 14.83536752923375
SL-14 R/B               
1 20511U 90018B   26034.61098586  .00000452  00000+0  53780-4 0  9992
2 20511  82.5187 254.9501 0015789 199.5379 160.5233 14.82109258917536
HST                     
1 20580U 90037B   26033.96221343  .00008282  00000+0  27848-3 0  9999
2 20580  28.4669 276.8051 0002014  87.5002 272.5824 15.28919278767990
SL-16 R/B               
1 20625U 90046B   26034.34095424 -.00000086  00000+0 -19817-4 0  9995
2 20625  70.9995  10.0491 0014473 347.3079  12.7677 14.15004947843531
COSMOS 2084             
1 20663U 90055A   26034.58231232  .00002984  00000+0  21982-3 0  9994
2 20663  62.7896  91.8876 0022545 183.0742 177.0224 15.05426641931188
SL-6 R/B(2)             
1 20666U 90055D   26034.31933366  .00003019  00000+0  23457-3 0  9994
2 20666  62.7844  10.7142 0019667 336.8914  23.1299 15.03400749933027
SL-8 R/B                
1 20775U 90078B   26034.42562145  .00017152  00000+0  50764-3 0  9999
2 20775  82.9034 282.0959 0367499 128.7807 234.6856 14.87911530804202
SL-8 R/B                
1 21088U 91006B   26034.55966330  .00000007  00000+0 -85902-5 0  9993
2 21088  82.9427 195.4217 0023446 129.1299 301.6282 13.77491906759374
OKEAN-3                 
1 21397U 91039A   26034.43066865  .00003567  00000+0  25197-3 0  9994
2 21397  82.5179  10.0224 0016281  88.1710 272.1381 15.04527337859887
COSMOS 2151             
1 21422U 91042A   26034.52943641  .00002021  00000+0  16033-3 0  9996
2 21422  82.4973 116.6262 0012936 168.5737 191.5783 14.99968830858077
