CCSDS_OMM_VERS = 2.0
CREATION_DATE  = 
ORIGINATOR     = 

OBJECT_NAME    = DELTA 2 R/B(1)
OBJECT_ID      = 1990-008B
CENTER_NAME    = EARTH
REF_FRAME      = TEME
TIME_SYSTEM    = UTC
MEAN_ELEMENT_THEORY = SGP/SGP4

EPOCH          = 2026-02-03T09:05:50.621568
MEAN_MOTION    = 15.51208223
ECCENTRICITY   = .00972557
INCLINATION    = 35.6062
RA_OF_ASC_NODE = 39.2061
ARG_OF_PERICENTER = 299.3795
MEAN_ANOMALY   = 59.7257

EPHEMERIS_TYPE = 0
CLASSIFICATION_TYPE = U
NORAD_CAT_ID   = 20453
ELEMENT_SET_NO = 999
REV_AT_EPOCH   = 92079
BSTAR          = .91516218E-3
MEAN_MOTION_DOT = .68042E-3
MEAN_MOTION_DDOT = 0

CCSDS_OMM_VERS = 2.0
CREATION_DATE  = 
ORIGINATOR     = 

OBJECT_NAME    = COSMOS 2058
OBJECT_ID      = 1990-010A
CENTER_NAME    = EARTH
REF_FRAME      = TEME
TIME_SYSTEM    = UTC
MEAN_ELEMENT_THEORY = SGP/SGP4

EPOCH          = 2026-02-03T13:07:22.582560
MEAN_MOTION    = 15.11003118
ECCENTRICITY   = .00120948
INCLINATION    = 82.4633
RA_OF_ASC_NODE = 81.0636
ARG_OF_PERICENTER = 92.0852
MEAN_ANOMALY   = 268.1763

EPHEMERIS_TYPE = 0
CLASSIFICATION_TYPE = U
NORAD_CAT_ID   = 20465
ELEMENT_SET_NO = 999
REV_AT_EPOCH   = 93708
BSTAR          = .24935302E-3
MEAN_MOTION_DOT = .4199E-4
MEAN_MOTION_DDOT = 0

CCSDS_OMM_VERS = 2.0
CREATION_DATE  = 
ORIGINATOR     = 

OBJECT_NAME    = SL-14 R/B
OBJECT_ID      = 1990-010B
CENTER_NAME    = EARTH
REF_FRAME      = TEME
TIME_SYSTEM    = UTC
MEAN_ELEMENT_THEORY = SGP/SGP4

EPOCH          = 2026-02-03T05:18:46.323936
MEAN_MOTION    = 14.83536752
ECCENTRICITY   = .0021178
INCLINATION    = 82.5037
RA_OF_ASC_NODE = 299.7650
ARG_OF_PERICENTER = 55.9843
MEAN_ANOMALY   = 304.3380

EPHEMERIS_TYPE = 0
CLASSIFICATION_TYPE = U
NORAD_CAT_ID   = 20466
ELEMENT_SET_NO = 999
REV_AT_EPOCH   = 92337
BSTAR          = .6365E-4
MEAN_MOTION_DOT = .55E-5
MEAN_MOTION_DDOT = 0

CCSDS_OMM_VERS = 2.0
CREATION_DATE  = 
ORIGINATOR     = 

OBJECT_NAME    = SL-14 R/B
OBJECT_ID      = 1990-018B
CENTER_NAME    = EARTH
REF_FRAME      = TEME
TIME_SYSTEM    = UTC
MEAN_ELEMENT_THEORY = SGP/SGP4

EPOCH          = 2026-02-03T14:39:49.178304
MEAN_MOTION    = 14.82109258
ECCENTRICITY   = .00157894
INCLINATION    = 82.5187
RA_OF_ASC_NODE = 254.9501
ARG_OF_PERICENTER = 199.5379
MEAN_ANOMALY   = 160.5233

EPHEMERIS_TYPE = 0
CLASSIFICATION_TYPE = U
NORAD_CAT_ID   = 20511
ELEMENT_SET_NO = 999
REV_AT_EPOCH   = 91753
BSTAR          = .53780165E-4
MEAN_MOTION_DOT = .452E-5
MEAN_MOTION_DDOT = 0

CCSDS_OMM_VERS = 2.0
CREATION_DATE  = 
ORIGINATOR     = 

OBJECT_NAME    = HST
OBJECT_ID      = 1990-037B
CENTER_NAME    = EARTH
REF_FRAME      = TEME
TIME_SYSTEM    = UTC
MEAN_ELEMENT_THEORY = SGP/SGP4

EPOCH          = 2026-02-02T23:05:35.240352
MEAN_MOTION    = 15.28919278
ECCENTRICITY   = .0002014
INCLINATION    = 28.4669
RA_OF_ASC_NODE = 276.8051
ARG_OF_PERICENTER = 87.5002
MEAN_ANOMALY   = 272.5824

EPHEMERIS_TYPE = 0
CLASSIFICATION_TYPE = U
NORAD_CAT_ID   = 20580
ELEMENT_SET_NO = 999
REV_AT_EPOCH   = 76799
BSTAR          = .27848E-3
MEAN_MOTION_DOT = .8282E-4
MEAN_MOTION_DDOT = 0

CCSDS_OMM_VERS = 2.0
CREATION_DATE  = 
ORIGINATOR     = 

OBJECT_NAME    = SL-16 R/B
OBJECT_ID      = 1990-046B
CENTER_NAME    = EARTH
REF_FRAME      = TEME
TIME_SYSTEM    = UTC
MEAN_ELEMENT_THEORY = SGP/SGP4

EPOCH          = 2026-02-03T08:10:58.446336
MEAN_MOTION    = 14.15004947
ECCENTRICITY   = .00144731
INCLINATION    = 70.9995
RA_OF_ASC_NODE = 10.0491
ARG_OF_PERICENTER = 347.3079
MEAN_ANOMALY   = 12.7677

EPHEMERIS_TYPE = 0
CLASSIFICATION_TYPE = U
NORAD_CAT_ID   = 20625
ELEMENT_SET_NO = 999
REV_AT_EPOCH   = 84353
BSTAR          = -.19816854E-4
MEAN_MOTION_DOT = -.86E-6
MEAN_MOTION_DDOT = 0

CCSDS_OMM_VERS = 2.0
CREATION_DATE  = 
ORIGINATOR     = 

OBJECT_NAME    = COSMOS 2084
OBJECT_ID      = 1990-055A
CENTER_NAME    = EARTH
REF_FRAME      = TEME
TIME_SYSTEM    = UTC
MEAN_ELEMENT_THEORY = SGP/SGP4

EPOCH          = 2026-02-03T13:58:31.784448
MEAN_MOTION    = 15.05426641
ECCENTRICITY   = .00225456
INCLINATION    = 62.7896
RA_OF_ASC_NODE = 91.8876
ARG_OF_PERICENTER = 183.0742
MEAN_ANOMALY   = 177.0224

EPHEMERIS_TYPE = 0
CLASSIFICATION_TYPE = U
NORAD_CAT_ID   = 20663
ELEMENT_SET_NO = 999
REV_AT_EPOCH   = 93118
BSTAR          = .21981757E-3
MEAN_MOTION_DOT = .2984E-4
MEAN_MOTION_DDOT = 0

CCSDS_OMM_VERS = 2.0
CREATION_DATE  = 
ORIGINATOR     = 

OBJECT_NAME    = SL-6 R/B(2)
OBJECT_ID      = 1990-055D
CENTER_NAME    = EARTH
REF_FRAME      = TEME
TIME_SYSTEM    = UTC
MEAN_ELEMENT_THEORY = SGP/SGP4

EPOCH          = 2026-02-03T07:39:50.428224
MEAN_MOTION    = 15.03400749
ECCENTRICITY   = .00196677
INCLINATION    = 62.7844
RA_OF_ASC_NODE = 10.7142
ARG_OF_PERICENTER = 336.8914
MEAN_ANOMALY   = 23.1299

EPHEMERIS_TYPE = 0
CLASSIFICATION_TYPE = U
NORAD_CAT_ID   = 20666
ELEMENT_SET_NO = 999
REV_AT_EPOCH   = 93302
BSTAR          = .23457304E-3
MEAN_MOTION_DOT = .3019E-4
MEAN_MOTION_DDOT = 0

CCSDS_OMM_VERS = 2.0
CREATION_DATE  = 
ORIGINATOR     = 

OBJECT_NAME    = SL-8 R/B
OBJECT_ID      = 1990-078B
CENTER_NAME    = EARTH
REF_FRAME      = TEME
TIME_SYSTEM    = UTC
MEAN_ELEMENT_THEORY = SGP/SGP4

EPOCH          = 2026-02-03T10:12:53.693280
MEAN_MOTION    = 14.87911530
ECCENTRICITY   = .03674994
INCLINATION    = 82.9034
RA_OF_ASC_NODE = 282.0959
ARG_OF_PERICENTER = 128.7807
MEAN_ANOMALY   = 234.6856

EPHEMERIS_TYPE = 0
CLASSIFICATION_TYPE = U
NORAD_CAT_ID   = 20775
ELEMENT_SET_NO = 999
REV_AT_EPOCH   = 80420
BSTAR          = .50764025E-3
MEAN_MOTION_DOT = .17152E-3
MEAN_MOTION_DDOT = 0

CCSDS_OMM_VERS = 2.0
CREATION_DATE  = 
ORIGINATOR     = 

OBJECT_NAME    = SL-8 R/B
OBJECT_ID      = 1991-006B
CENTER_NAME    = EARTH
REF_FRAME      = TEME
TIME_SYSTEM    = UTC
MEAN_ELEMENT_THEORY = SGP/SGP4

EPOCH          = 2026-02-03T13:25:54.909120
MEAN_MOTION    = 13.77491906
ECCENTRICITY   = .00234465
INCLINATION    = 82.9427
RA_OF_ASC_NODE = 195.4217
ARG_OF_PERICENTER = 129.1299
MEAN_ANOMALY   = 301.6282

EPHEMERIS_TYPE = 0
CLASSIFICATION_TYPE = U
NORAD_CAT_ID   = 21088
ELEMENT_SET_NO = 999
REV_AT_EPOCH   = 75937
BSTAR          = -.8590201E-5
MEAN_MOTION_DOT = .7E-7
MEAN_MOTION_DDOT = 0

CCSDS_OMM_VERS = 2.0
CREATION_DATE  = 
ORIGINATOR     = 

OBJECT_NAME    = OKEAN-3
OBJECT_ID      = 1991-039A
CENTER_NAME    = EARTH
REF_FRAME      = TEME
TIME_SYSTEM    = UTC
MEAN_ELEMENT_THEORY = SGP/SGP4

EPOCH          = 2026-02-03T10:20:09.771360
MEAN_MOTION    = 15.04527337
ECCENTRICITY   = .00162815
INCLINATION    = 82.5179
RA_OF_ASC_NODE = 10.0224
ARG_OF_PERICENTER = 88.1710
MEAN_ANOMALY   = 272.1381

EPHEMERIS_TYPE = 0
CLASSIFICATION_TYPE = U
NORAD_CAT_ID   = 21397
ELEMENT_SET_NO = 999
REV_AT_EPOCH   = 85988
BSTAR          = .25197495E-3
MEAN_MOTION_DOT = .3567E-4
MEAN_MOTION_DDOT = 0

CCSDS_OMM_VERS = 2.0
CREATION_DATE  = 
ORIGINATOR     = 

OBJECT_NAME    = COSMOS 2151
OBJECT_ID      = 1991-042A
CENTER_NAME    = EARTH
REF_FRAME      = TEME
TIME_SYSTEM    = UTC
MEAN_ELEMENT_THEORY = SGP/SGP4

EPOCH          = 2026-02-03T12:42:23.305824
MEAN_MOTION    = 14.99968830
ECCENTRICITY   = .00129368
INCLINATION    = 82.4973
RA_OF_ASC_NODE = 116.6262
ARG_OF_PERICENTER = 168.5737
MEAN_ANOMALY   = 191.5783

EPHEMERIS_TYPE = 0
CLASSIFICATION_TYPE = U
NORAD_CAT_ID   = 21422
ELEMENT_SET_NO = 999
REV_AT_EPOCH   = 85807
BSTAR          = .16032813E-3
MEAN_MOTION_DOT = .2021E-4
MEAN_MOTION_DDOT = 0

